COSMOS 2058             
1 20465U 90010A   26080.36674270  .00005083  00000+0  29911-3 0  9998
2 20465  82.4679  35.9208 0007813 301.9292  58.1178 15.11418840944007
SL-14 R/B               
1 20466U 90010B   26080.55746022  .00000470  00000+0  54012-4 0  9991
2 20466  82.4988 256.2374 0018347 260.1059  99.8085 14.83579310930242
SL-14 R/B               
1 20511U 90018B   26080.38415913  .00000478  00000+0  56926-4 0  9997
2 20511  82.5225 212.1602 0017394  56.5331 303.7543 14.82156652924310
HST                     
1 20580U 90037B   26080.36078781  .00008789  00000+0  28927-3 0  9992
2 20580  28.4723 320.3734 0001508 254.4607 105.5822 15.29656769775106
SL-16 R/B               
1 20625U 90046B   26080.57342743  .00000090  00000+0  71027-4 0  9994
2 20625  70.9954 272.9542 0016228 283.9588  75.9730 14.15012144850078
COSMOS 2084             
1 20663U 90055A   26080.60988129  .00002163  00000+0  16243-3 0  9995
2 20663  62.7887 294.9204 0015271 193.3390 166.7309 15.05712503938114
SL-6 R/B(2)             
1 20666U 90055D   26080.54235337  .00002368  00000+0  18546-3 0  9992
2 20666  62.7831 213.5409 0026722 349.8159  10.2396 15.03649888939971
SL-8 R/B                
1 20775U 90078B   26080.53491273  .00019905  00000+0  58891-3 0  9992
2 20775  82.9016 240.6523 0359807 334.0928  24.2647 14.89421495811060
SL-8 R/B                
1 21088U 91006B   26080.62987724  .00000102  00000+0  86596-4 0  9996
2 21088  82.9458 161.1694 0022331   5.5393 157.2214 13.77495911765716
OKEAN-3                 
1 21397U 91039A   26080.38190232  .00002586  00000+0  18072-3 0  9999
2 21397  82.5182 325.5173 0012733 293.2891  66.6995 15.04877631866795
COSMOS 2151             
1 21422U 91042A   26080.55641181  .00001851  00000+0  14597-3 0  9997
2 21422  82.4936  72.2254 0013169  27.0380 333.1527 15.00152264864971
SL-14 R/B               
1 21423U 91042B   26080.64223944  .00000499  00000+0  60082-4 0  9999
2 21423  82.4944 208.9754 0016592 197.1917 162.8738 14.81841524854840
